{
  "norad_id": 43255,
  "name": "IRIDIUM 148",
  "history": [
    {
      "epoch": "2026-03-28T16:46:07.407840",
      "apogee_km": 779.2317831175533,
      "perigee_km": 776.0998313448836,
      "latitude_deg": 36.6109342356962,
      "longitude_deg": 12.574897600105032,
      "semi_major_axis_km": 7155.802807231218,
      "eccentricity": 0.00021884,
      "inclination_deg": 86.3981,
      "raan_deg": 324.1331,
      "arg_perigee_deg": 86.2974,
      "mean_anomaly_deg": 273.8472,
      "mean_motion_rev_day": 14.34218155
    },
    {
      "epoch": "2026-03-29T04:29:23.396640",
      "apogee_km": 779.2231929987347,
      "perigee_km": 776.1075566447362,
      "latitude_deg": 78.11106103442852,
      "longitude_deg": 59.459329599980265,
      "semi_major_axis_km": 7155.802374821735,
      "eccentricity": 0.0002177,
      "inclination_deg": 86.3981,
      "raan_deg": 323.929,
      "arg_perigee_deg": 86.252,
      "mean_anomaly_deg": 273.8924,
      "mean_motion_rev_day": 14.34218285
    }
  ]
}